COSMOS 2513             
1 41121U 15075A   26063.65455256 -.00000149  00000+0  00000+0 0  9995
2 41121   0.0444 104.8695 0002086 241.3646 132.0438  1.00275474 37504
EXPRESS-AMU1            
1 41191U 15082A   26063.36572510  .00000144  00000+0  00000+0 0  9995
2 41191   0.0207 134.3822 0003213 193.4399   2.0190  1.00270888 37216
GAOFEN-4                
1 41194U 15083A   26063.82822594 -.00000344  00000+0  00000+0 0  9993
2 41194   0.3808  83.8538 0003656  80.2575  42.2890  1.00269521 37485
BELINTERSAT-1           
1 41238U 16001A   26063.29905912  .00000095  00000+0  00000+0 0  9992
2 41238   0.0516 282.6224 0001467  46.7380 351.8351  1.00269977 37180
IRNSS-1E                
1 41241U 16003A   26062.89409245 -.00000293  00000+0  00000+0 0  9992
2 41241  33.0059  61.2659 0017752 189.2049 344.8575  1.00274986 37023
INTELSAT 29E (IS-29E)   
1 41308U 16004A   26063.13078757  .00000019  00000+0  00000+0 0  9990
2 41308   6.2370  71.5845 0001096 234.7814 130.1788  1.00627646 37225
EUTELSAT 9B             
1 41310U 16005A   26063.37683795  .00000050  00000+0  00000+0 0  9999
2 41310   0.0258  60.9038 0004288 258.7516 347.1290  1.00274710 37062
SES-9                   
1 41380U 16013A   26063.33003138 -.00000357  00000+0  00000+0 0  9999
2 41380   0.0427 307.7822 0001514  86.5529 354.8377  1.00271983 36384
EUTELSAT 65 WEST A      
1 41382U 16014A   26063.15044815 -.00000289  00000+0  00000+0 0  9993
2 41382   0.0706  41.1938 0002240 297.2475 172.4239  1.00272377 36481
IRNSS-1F                
1 41384U 16015A   26063.74256449  .00000149  00000+0  00000+0 0  9993
2 41384   5.0851  99.2627 0019170 188.0583 174.8954  1.00271425 36624
IRNSS-1G                
1 41469U 16027A   26063.62344865 -.00000344  00000+0  00000+0 0  9995
2 41469   4.9357 100.0077 0005294 314.0535 102.2828  1.00268597 36134
JCSAT-2B                
1 41471U 16028A   26062.90226302 -.00000179  00000+0  00000+0 0  9990
2 41471   0.0087 120.7498 0001124 223.0582 296.6414  1.00271223 36071
THAICOM 8               
1 41552U 16031A   26063.75322707 -.00000132  00000+0  00000+0 0  9993
2 41552   0.0695  47.8997 0004028 304.3185 159.9763  1.00272509 35678
INTELSAT 31 (IS-31)     
1 41581U 16035A   26063.62762602 -.00000161  00000+0  00000+0 0  9999
2 41581   0.0381 249.4491 0001729 348.0097  55.8020  1.00270690 35638
BEIDOU-2 G7             
1 41586U 16037A   26063.84770705 -.00000362  00000+0  00000+0 0  9996
2 41586   1.4627  68.2080 0007621 341.9955 168.0550  1.00267262  5840
ABS-2A (MONGOLSAT-1)    
1 41588U 16038A   26063.63547584 -.00000094  00000+0  00000+0 0  9995
2 41588   0.0115 141.9968 0001964 152.2568 171.6066  1.00270888 35663
EUTELSAT 117 WEST B     
1 41589U 16038B   26063.36225455 -.00000023  00000+0  00000+0 0  9998
2 41589   0.0384 342.0206 0000210 243.2130 310.2920  1.00271881 35619
