[{"OBJECT_NAME":"COSMOS 2513","OBJECT_ID":"2015-075A","EPOCH":"2026-03-04T15:42:33.341184","MEAN_MOTION":1.00275474,"ECCENTRICITY":0.0002086,"INCLINATION":0.0444,"RA_OF_ASC_NODE":104.8695,"ARG_OF_PERICENTER":241.3646,"MEAN_ANOMALY":132.0438,"EPHEMERIS_TYPE":0,"CLASSIFICATION_TYPE":"U","NORAD_CAT_ID":41121,"ELEMENT_SET_NO":999,"REV_AT_EPOCH":3750,"BSTAR":0,"MEAN_MOTION_DOT":-1.49e-6,"MEAN_MOTION_DDOT":0},{"OBJECT_NAME":"EXPRESS-AMU1","OBJECT_ID":"2015-082A","EPOCH":"2026-03-04T08:46:38.648640","MEAN_MOTION":1.00270888,"ECCENTRICITY":0.0003213,"INCLINATION":0.0207,"RA_OF_ASC_NODE":134.3822,"ARG_OF_PERICENTER":193.4399,"MEAN_ANOMALY":2.019,"EPHEMERIS_TYPE":0,"CLASSIFICATION_TYPE":"U","NORAD_CAT_ID":41191,"ELEMENT_SET_NO":999,"REV_AT_EPOCH":3721,"BSTAR":0,"MEAN_MOTION_DOT":1.44e-6,"MEAN_MOTION_DDOT":0},{"OBJECT_NAME":"GAOFEN-4","OBJECT_ID":"2015-083A","EPOCH":"2026-03-04T19:52:38.721216","MEAN_MOTION":1.00269521,"ECCENTRICITY":0.0003656,"INCLINATION":0.3808,"RA_OF_ASC_NODE":83.8538,"ARG_OF_PERICENTER":80.2575,"MEAN_ANOMALY":42.289,"EPHEMERIS_TYPE":0,"CLASSIFICATION_TYPE":"U","NORAD_CAT_ID":41194,"ELEMENT_SET_NO":999,"REV_AT_EPOCH":3748,"BSTAR":0,"MEAN_MOTION_DOT":-3.44e-6,"MEAN_MOTION_DDOT":0},{"OBJECT_NAME":"BELINTERSAT-1","OBJECT_ID":"2016-001A","EPOCH":"2026-03-04T07:10:38.707968","MEAN_MOTION":1.00269977,"ECCENTRICITY":0.00014671,"INCLINATION":0.0516,"RA_OF_ASC_NODE":282.6224,"ARG_OF_PERICENTER":46.738,"MEAN_ANOMALY":351.8351,"EPHEMERIS_TYPE":0,"CLASSIFICATION_TYPE":"U","NORAD_CAT_ID":41238,"ELEMENT_SET_NO":999,"REV_AT_EPOCH":3718,"BSTAR":0,"MEAN_MOTION_DOT":9.5e-7,"MEAN_MOTION_DDOT":0},{"OBJECT_NAME":"IRNSS-1E","OBJECT_ID":"2016-003A","EPOCH":"2026-03-03T21:27:29.587680","MEAN_MOTION":1.00274986,"ECCENTRICITY":0.0017752,"INCLINATION":33.0059,"RA_OF_ASC_NODE":61.2659,"ARG_OF_PERICENTER":189.2049,"MEAN_ANOMALY":344.8575,"EPHEMERIS_TYPE":0,"CLASSIFICATION_TYPE":"U","NORAD_CAT_ID":41241,"ELEMENT_SET_NO":999,"REV_AT_EPOCH":3702,"BSTAR":0,"MEAN_MOTION_DOT":-2.93e-6,"MEAN_MOTION_DDOT":0},{"OBJECT_NAME":"INTELSAT 29E (IS-29E)","OBJECT_ID":"2016-004A","EPOCH":"2026-03-04T03:08:20.046048","MEAN_MOTION":1.00627646,"ECCENTRICITY":0.00010964,"INCLINATION":6.237,"RA_OF_ASC_NODE":71.5845,"ARG_OF_PERICENTER":234.7814,"MEAN_ANOMALY":130.1788,"EPHEMERIS_TYPE":0,"CLASSIFICATION_TYPE":"U","NORAD_CAT_ID":41308,"ELEMENT_SET_NO":999,"REV_AT_EPOCH":3722,"BSTAR":0,"MEAN_MOTION_DOT":1.9e-7,"MEAN_MOTION_DDOT":0},{"OBJECT_NAME":"EUTELSAT 9B","OBJECT_ID":"2016-005A","EPOCH":"2026-03-04T09:02:38.798880","MEAN_MOTION":1.0027471,"ECCENTRICITY":0.00042889,"INCLINATION":0.0258,"RA_OF_ASC_NODE":60.9038,"ARG_OF_PERICENTER":258.7516,"MEAN_ANOMALY":347.129,"EPHEMERIS_TYPE":0,"CLASSIFICATION_TYPE":"U","NORAD_CAT_ID":41310,"ELEMENT_SET_NO":999,"REV_AT_EPOCH":3706,"BSTAR":0,"MEAN_MOTION_DOT":5.0e-7,"MEAN_MOTION_DDOT":0},{"OBJECT_NAME":"SES-9","OBJECT_ID":"2016-013A","EPOCH":"2026-03-04T07:55:14.711232","MEAN_MOTION":1.00271983,"ECCENTRICITY":0.00015147,"INCLINATION":0.0427,"RA_OF_ASC_NODE":307.7822,"ARG_OF_PERICENTER":86.5529,"MEAN_ANOMALY":354.8377,"EPHEMERIS_TYPE":0,"CLASSIFICATION_TYPE":"U","NORAD_CAT_ID":41380,"ELEMENT_SET_NO":999,"REV_AT_EPOCH":3638,"BSTAR":0,"MEAN_MOTION_DOT":-3.57e-6,"MEAN_MOTION_DDOT":0},{"OBJECT_NAME":"EUTELSAT 65 WEST A","OBJECT_ID":"2016-014A","EPOCH":"2026-03-04T03:36:38.720160","MEAN_MOTION":1.00272377,"ECCENTRICITY":0.00022407,"INCLINATION":0.0706,"RA_OF_ASC_NODE":41.1938,"ARG_OF_PERICENTER":297.2475,"MEAN_ANOMALY":172.4239,"EPHEMERIS_TYPE":0,"CLASSIFICATION_TYPE":"U","NORAD_CAT_ID":41382,"ELEMENT_SET_NO":999,"REV_AT_EPOCH":3648,"BSTAR":0,"MEAN_MOTION_DOT":-2.89e-6,"MEAN_MOTION_DDOT":0},{"OBJECT_NAME":"IRNSS-1F","OBJECT_ID":"2016-015A","EPOCH":"2026-03-04T17:49:17.571936","MEAN_MOTION":1.00271425,"ECCENTRICITY":0.001917,"INCLINATION":5.0851,"RA_OF_ASC_NODE":99.2627,"ARG_OF_PERICENTER":188.0583,"MEAN_ANOMALY":174.8954,"EPHEMERIS_TYPE":0,"CLASSIFICATION_TYPE":"U","NORAD_CAT_ID":41384,"ELEMENT_SET_NO":999,"REV_AT_EPOCH":3662,"BSTAR":0,"MEAN_MOTION_DOT":1.49e-6,"MEAN_MOTION_DDOT":0},{"OBJECT_NAME":"IRNSS-1G","OBJECT_ID":"2016-027A","EPOCH":"2026-03-04T14:57:45.963360","MEAN_MOTION":1.00268597,"ECCENTRICITY":0.0005294,"INCLINATION":4.9357,"RA_OF_ASC_NODE":100.0077,"ARG_OF_PERICENTER":314.0535,"MEAN_ANOMALY":102.2828,"EPHEMERIS_TYPE":0,"CLASSIFICATION_TYPE":"U","NORAD_CAT_ID":41469,"ELEMENT_SET_NO":999,"REV_AT_EPOCH":3613,"BSTAR":0,"MEAN_MOTION_DOT":-3.44e-6,"MEAN_MOTION_DDOT":0},{"OBJECT_NAME":"JCSAT-2B","OBJECT_ID":"2016-028A","EPOCH":"2026-03-03T21:39:15.524928","MEAN_MOTION":1.00271223,"ECCENTRICITY":0.0001124,"INCLINATION":0.0087,"RA_OF_ASC_NODE":120.7498,"ARG_OF_PERICENTER":223.0582,"MEAN_ANOMALY":296.6414,"EPHEMERIS_TYPE":0,"CLASSIFICATION_TYPE":"U","NORAD_CAT_ID":41471,"ELEMENT_SET_NO":999,"REV_AT_EPOCH":3607,"BSTAR":0,"MEAN_MOTION_DOT":-1.79e-6,"MEAN_MOTION_DDOT":0},{"OBJECT_NAME":"THAICOM 8","OBJECT_ID":"2016-031A","EPOCH":"2026-03-04T18:04:38.818848","MEAN_MOTION":1.00272509,"ECCENTRICITY":0.0004028,"INCLINATION":0.0695,"RA_OF_ASC_NODE":47.8997,"ARG_OF_PERICENTER":304.3185,"MEAN_ANOMALY":159.9763,"EPHEMERIS_TYPE":0,"CLASSIFICATION_TYPE":"U","NORAD_CAT_ID":41552,"ELEMENT_SET_NO":999,"REV_AT_EPOCH":3567,"BSTAR":0,"MEAN_MOTION_DOT":-1.32e-6,"MEAN_MOTION_DDOT":0},{"OBJECT_NAME":"INTELSAT 31 (IS-31)","OBJECT_ID":"2016-035A","EPOCH":"2026-03-04T15:03:46.888128","MEAN_MOTION":1.0027069,"ECCENTRICITY":0.0001729,"INCLINATION":0.0381,"RA_OF_ASC_NODE":249.4491,"ARG_OF_PERICENTER":348.0097,"MEAN_ANOMALY":55.802,"EPHEMERIS_TYPE":0,"CLASSIFICATION_TYPE":"U","NORAD_CAT_ID":41581,"ELEMENT_SET_NO":999,"REV_AT_EPOCH":3563,"BSTAR":0,"MEAN_MOTION_DOT":-1.61e-6,"MEAN_MOTION_DDOT":0},{"OBJECT_NAME":"BEIDOU-2 G7","OBJECT_ID":"2016-037A","EPOCH":"2026-03-04T20:20:41.889120","MEAN_MOTION":1.00267262,"ECCENTRICITY":0.0007621,"INCLINATION":1.4627,"RA_OF_ASC_NODE":68.208,"ARG_OF_PERICENTER":341.9955,"MEAN_ANOMALY":168.055,"EPHEMERIS_TYPE":0,"CLASSIFICATION_TYPE":"U","NORAD_CAT_ID":41586,"ELEMENT_SET_NO":999,"REV_AT_EPOCH":584,"BSTAR":0,"MEAN_MOTION_DOT":-3.62e-6,"MEAN_MOTION_DDOT":0},{"OBJECT_NAME":"ABS-2A (MONGOLSAT-1)","OBJECT_ID":"2016-038A","EPOCH":"2026-03-04T15:15:05.112576","MEAN_MOTION":1.00270888,"ECCENTRICITY":0.0001964,"INCLINATION":0.0115,"RA_OF_ASC_NODE":141.9968,"ARG_OF_PERICENTER":152.2568,"MEAN_ANOMALY":171.6066,"EPHEMERIS_TYPE":0,"CLASSIFICATION_TYPE":"U","NORAD_CAT_ID":41588,"ELEMENT_SET_NO":999,"REV_AT_EPOCH":3566,"BSTAR":0,"MEAN_MOTION_DOT":-9.4e-7,"MEAN_MOTION_DDOT":0},{"OBJECT_NAME":"EUTELSAT 117 WEST B","OBJECT_ID":"2016-038B","EPOCH":"2026-03-04T08:41:38.793120","MEAN_MOTION":1.00271881,"ECCENTRICITY":2.105e-5,"INCLINATION":0.0384,"RA_OF_ASC_NODE":342.0206,"ARG_OF_PERICENTER":243.213,"MEAN_ANOMALY":310.292,"EPHEMERIS_TYPE":0,"CLASSIFICATION_TYPE":"U","NORAD_CAT_ID":41589,"ELEMENT_SET_NO":999,"REV_AT_EPOCH":3561,"BSTAR":0,"MEAN_MOTION_DOT":-2.3e-7,"MEAN_MOTION_DDOT":0}]
